TIANMU-1 20             
1 58661U 23208B   26179.61819265  .00007687  00000+0  24407-3 0  9991
2 58661  97.4458 296.6246 0005557 283.6588  76.4035 15.32930754139177
TIANMU-1 21             
1 58662U 23208C   26179.58922896  .00009037  00000+0  26610-3 0  9992
2 58662  97.4516 299.3257 0005682 273.2265  86.8328 15.35273381139316
TIANMU-1 22             
1 58663U 23208D   26179.57493093  .00006814  00000+0  22862-3 0  9999
2 58663  97.4511 295.8602 0002313 311.2192  48.8849 15.31211581139076
TIANMU-1 15             
1 58700U 24004A   26179.63212336  .00004944  00000+0  19036-3 0  9993
2 58700  97.4662   5.8237 0005611 303.9738  56.0967 15.26823802137525
TIANMU-1 16             
1 58701U 24004B   26179.62262575  .00004849  00000+0  18655-3 0  9993
2 58701  97.4610   5.0400 0004743 323.8794  36.2123 15.26860545137520
TIANMU-1 17             
1 58702U 24004C   26179.60808831  .00005085  00000+0  19550-3 0  9991
2 58702  97.4638   5.5147 0004402 331.9760  28.1241 15.26859143137511
TIANMU-1 18             
1 58703U 24004D   26179.64881103  .00004987  00000+0  19228-3 0  9991
2 58703  97.4655   5.8163 0003556 308.1622  51.9296 15.26779116137520
INSAT-3DS               
1 58990U 24033A   26178.79568133 -.00000144  00000+0  00000+0 0  9997
2 58990   0.0631  99.7881 0001489 346.8209 197.8056  1.00270531 47173
METEOR-M2 4             
1 59051U 24039A   26179.64918106 -.00000002  00000+0  18555-4 0  9998
2 59051  98.7015 138.8033 0007869 130.3004 229.8863 14.22430621120892
GOES 19                 
1 60133U 24119A   26179.57553440 -.00000237  00000+0  00000+0 0  9999
2 60133   0.0131  85.1461 0000473  54.9040 268.6187  1.00273003  7079
MTG-S1                  
1 64723U 25143A   26179.30521948  .00000004  00000+0  00000+0 0  9996
2 64723   0.5945 341.3250 0002752 267.8651 136.6277  1.00272049  3534
METOP-SGA1              
1 65159U 25172A   26179.41509811  .00000043  00000+0  40883-4 0  9990
2 65159  98.6641 238.9048 0008025  21.4170 338.7341 14.19816714 45387
FENGYUN 3H              
1 65815U 25219A   26179.59750954  .00000041  00000+0  39661-4 0  9996
2 65815  98.6770 120.1449 0001481  68.8888 291.2447 14.19922279 39002
